{"type": "FeatureCollection", "features": [ {"type": "Feature", "properties": {"norad_id": 34141, "name": "COSMOS 2251 DEB", "group": "cosmos-2251-debris", "lat": -45.92105530775185, "lon": -2.7522584984300056, "alt_km": 761.8662197802496, "timestamp": "2025-12-20T09:36:02.042976+00:00", "meta": {"OBJECT_NAME": "COSMOS 2251 DEB", "OBJECT_ID": "1993-036LN", "EPOCH": "2025-12-19T12:52:12.958176", "MEAN_MOTION": 14.49305382, "ECCENTRICITY": 0.0046639, "INCLINATION": 74.011, "RA_OF_ASC_NODE": 16.093, "ARG_OF_PERICENTER": 99.961, "MEAN_ANOMALY": 27.2002, "EPHEMERIS_TYPE": 0, "CLASSIFICATION_TYPE": "U", "NORAD_CAT_ID": 34141, "ELEMENT_SET_NO": 999, "REV_AT_EPOCH": 87792, "BSTAR": 0.00091343, "MEAN_MOTION_DOT": 3.509e-05, "MEAN_MOTION_DDOT": 0}, "tle": {"line1": "1 34141U 93036LN  25353.53626109  .00003509  00000+0  91343-3 0  9993", "line2": "2 34141  74.0110  16.0930 0046639  99.9610  27.2002 14.49305382877924"}}, "geometry": {"type": "Point", "coordinates": [-2.7522584984300056, -45.92105530775185]}}, {"type": "Feature", "properties": {"norad_id": 34270, "name": "COSMOS 2251 DEB", "group": "cosmos-2251-debris", "lat": -13.077381954122481, "lon": -71.95376943664037, "alt_km": 683.8359727216903, "timestamp": "2025-12-20T09:36:02.042986+00:00", "meta": {"OBJECT_NAME": "COSMOS 2251 DEB", "OBJECT_ID": "1993-036LQ", "EPOCH": "2025-12-20T03:06:28.527840", "MEAN_MOTION": 14.6522222, "ECCENTRICITY": 0.0047871, "INCLINATION": 74.0118, "RA_OF_ASC_NODE": 292.3861, "ARG_OF_PERICENTER": 82.9701, "MEAN_ANOMALY": 277.6908, "EPHEMERIS_TYPE": 0, "CLASSIFICATION_TYPE": "U", "NORAD_CAT_ID": 34270, "ELEMENT_SET_NO": 999, "REV_AT_EPOCH": 89204, "BSTAR": 0.00048521, "MEAN_MOTION_DOT": 2.626e-05, "MEAN_MOTION_DDOT": 0}, "tle": {"line1": "1 34270U 93036LQ  25354.12949685  .00002626  00000+0  48521-3 0  9998", "line2": "2 34270  74.0118 292.3861 0047871  82.9701 277.6908 14.65222220892042"}}, "geometry": {"type": "Point", "coordinates": [-71.95376943664037, -13.077381954122481]}}, {"type": "Feature", "properties": {"norad_id": 34271, "name": "COSMOS 2251 DEB", "group": "cosmos-2251-debris", "lat": 73.92746982927213, "lon": -91.47694467060727, "alt_km": 661.915496648212, "timestamp": "2025-12-20T09:36:02.042996+00:00", "meta": {"OBJECT_NAME": "COSMOS 2251 DEB", "OBJECT_ID": "1993-036LR", "EPOCH": "2025-12-20T00:06:11.728224", "MEAN_MOTION": 14.70904035, "ECCENTRICITY": 0.0018445, "INCLINATION": 74.0189, "RA_OF_ASC_NODE": 185.2112, "ARG_OF_PERICENTER": 238.6917, "MEAN_ANOMALY": 275.2029, "EPHEMERIS_TYPE": 0, "CLASSIFICATION_TYPE": "U", "NORAD_CAT_ID": 34271, "ELEMENT_SET_NO": 999, "REV_AT_EPOCH": 88341, "BSTAR": 0.0012216, "MEAN_MOTION_DOT": 7.474e-05, "MEAN_MOTION_DDOT": 0}, "tle": {"line1": "1 34271U 93036LR  25354.00430241  .00007474  00000+0  12216-2 0  9996", "line2": "2 34271  74.0189 185.2112 0018445 238.6917 275.2029 14.70904035883410"}}, "geometry": {"type": "Point", "coordinates": [-91.47694467060727, 73.92746982927213]}}, {"type": "Feature", "properties": {"norad_id": 34273, "name": "COSMOS 2251 DEB", "group": "cosmos-2251-debris", "lat": -23.16337543799144, "lon": -100.1841472195871, "alt_km": 684.4655447227369, "timestamp": "2025-12-20T09:36:02.043006+00:00", "meta": {"OBJECT_NAME": "COSMOS 2251 DEB", "OBJECT_ID": "1993-036LT", "EPOCH": "2025-12-19T23:37:51.085920", "MEAN_MOTION": 14.61286393, "ECCENTRICITY": 0.0013718, "INCLINATION": 74.0365, "RA_OF_ASC_NODE": 73.5752, "ARG_OF_PERICENTER": 199.569, "MEAN_ANOMALY": 340.0645, "EPHEMERIS_TYPE": 0, "CLASSIFICATION_TYPE": "U", "NORAD_CAT_ID": 34273, "ELEMENT_SET_NO": 999, "REV_AT_EPOCH": 88727, "BSTAR": 0.0005813, "MEAN_MOTION_DOT": 2.844e-05, "MEAN_MOTION_DDOT": 0}, "tle": {"line1": "1 34273U 93036LT  25353.98461905  .00002844  00000+0  58130-3 0  9997", "line2": "2 34273  74.0365  73.5752 0013718 199.5690 340.0645 14.61286393887271"}}, "geometry": {"type": "Point", "coordinates": [-100.1841472195871, -23.16337543799144]}}, {"type": "Feature", "properties": {"norad_id": 34274, "name": "COSMOS 2251 DEB", "group": "cosmos-2251-debris", "lat": 23.434672472911675, "lon": 60.95187397672552, "alt_km": 691.9826661928828, "timestamp": "2025-12-20T09:36:02.043016+00:00", "meta": {"OBJECT_NAME": "COSMOS 2251 DEB", "OBJECT_ID": "1993-036LU", "EPOCH": "2025-12-19T14:30:34.816032", "MEAN_MOTION": 14.64857632, "ECCENTRICITY": 0.0021678, "INCLINATION": 74.0044, "RA_OF_ASC_NODE": 55.3413, "ARG_OF_PERICENTER": 204.985, "MEAN_ANOMALY": 306.4654, "EPHEMERIS_TYPE": 0, "CLASSIFICATION_TYPE": "U", "NORAD_CAT_ID": 34274, "ELEMENT_SET_NO": 999, "REV_AT_EPOCH": 88776, "BSTAR": 0.00070677, "MEAN_MOTION_DOT": 3.759e-05, "MEAN_MOTION_DDOT": 0}, "tle": {"line1": "1 34274U 93036LU  25353.60456963  .00003759  00000+0  70677-3 0  9991", "line2": "2 34274  74.0044  55.3413 0021678 204.9850 306.4654 14.64857632887764"}}, "geometry": {"type": "Point", "coordinates": [60.95187397672552, 23.434672472911675]}}, {"type": "Feature", "properties": {"norad_id": 34276, "name": "COSMOS 2251 DEB", "group": "cosmos-2251-debris", "lat": 62.06545820693321, "lon": -141.94527722888347, "alt_km": 699.2740568006047, "timestamp": "2025-12-20T09:36:02.043027+00:00", "meta": {"OBJECT_NAME": "COSMOS 2251 DEB", "OBJECT_ID": "1993-036LW", "EPOCH": "2025-12-19T15:38:54.573792", "MEAN_MOTION": 14.57271378, "ECCENTRICITY": 0.00223658, "INCLINATION": 74.024, "RA_OF_ASC_NODE": 72.179, "ARG_OF_PERICENTER": 218.3562, "MEAN_ANOMALY": 292.5145, "EPHEMERIS_TYPE": 0, "CLASSIFICATION_TYPE": "U", "NORAD_CAT_ID": 34276, "ELEMENT_SET_NO": 999, "REV_AT_EPOCH": 88693, "BSTAR": 0.00049445994, "MEAN_MOTION_DOT": 2.215e-05, "MEAN_MOTION_DDOT": 0}, "tle": {"line1": "1 34276U 93036LW  25353.65202053  .00002215  00000+0  49446-3 0  9993", "line2": "2 34276  74.0240  72.1790 0022365 218.3562 292.5145 14.57271378886939"}}, "geometry": {"type": "Point", "coordinates": [-141.94527722888347, 62.06545820693321]}}, {"type": "Feature", "properties": {"norad_id": 34297, "name": "COSMOS 2251 DEB", "group": "cosmos-2251-debris", "lat": -72.52314311672198, "lon": -155.11724625736508, "alt_km": 770.362970615769, "timestamp": "2025-12-20T09:36:02.043037+00:00", "meta": {"OBJECT_NAME": "COSMOS 2251 DEB", "OBJECT_ID": "1993-036MT", "EPOCH": "2025-12-20T03:49:37.586784", "MEAN_MOTION": 14.36635091, "ECCENTRICITY": 0.0017561, "INCLINATION": 74.0487, "RA_OF_ASC_NODE": 270.608, "ARG_OF_PERICENTER": 338.0806, "MEAN_ANOMALY": 135.6716, "EPHEMERIS_TYPE": 0, "CLASSIFICATION_TYPE": "U", "NORAD_CAT_ID": 34297, "ELEMENT_SET_NO": 999, "REV_AT_EPOCH": 88171, "BSTAR": 9.5594e-05, "MEAN_MOTION_DOT": 2.55e-06, "MEAN_MOTION_DDOT": 0}, "tle": {"line1": "1 34297U 93036MT  25354.15946281  .00000255  00000+0  95594-4 0  9998", "line2": "2 34297  74.0487 270.6080 0017561 338.0806 135.6716 14.36635091881710"}}, "geometry": {"type": "Point", "coordinates": [-155.11724625736508, -72.52314311672198]}}, {"type": "Feature", "properties": {"norad_id": 34299, "name": "COSMOS 2251 DEB", "group": "cosmos-2251-debris", "lat": -28.30217607558733, "lon": 145.75425389465204, "alt_km": 303.69768402396585, "timestamp": "2025-12-20T09:36:02.043048+00:00", "meta": {"OBJECT_NAME": "COSMOS 2251 DEB", "OBJECT_ID": "1993-036MV", "EPOCH": "2025-12-20T04:12:05.235840", "MEAN_MOTION": 15.92019666, "ECCENTRICITY": 0.0011639, "INCLINATION": 73.9688, "RA_OF_ASC_NODE": 317.3741, "ARG_OF_PERICENTER": 89.5545, "MEAN_ANOMALY": 270.7023, "EPHEMERIS_TYPE": 0, "CLASSIFICATION_TYPE": "U", "NORAD_CAT_ID": 34299, "ELEMENT_SET_NO": 999, "REV_AT_EPOCH": 89128, "BSTAR": 0.0056133, "MEAN_MOTION_DOT": 0.01825437, "MEAN_MOTION_DDOT": 0.0018051}, "tle": {"line1": "1 34299U 93036MV  25354.17506060  .01825437  18051-2  56133-2 0  9999", "line2": "2 34299  73.9688 317.3741 0011639  89.5545 270.7023 15.92019666891286"}}, "geometry": {"type": "Point", "coordinates": [145.75425389465204, -28.30217607558733]}}, {"type": "Feature", "properties": {"norad_id": 34301, "name": "COSMOS 2251 DEB", "group": "cosmos-2251-debris", "lat": 65.57816682830308, "lon": -67.70411278679151, "alt_km": 609.0011813631081, "timestamp": "2025-12-20T09:36:02.043058+00:00", "meta": {"OBJECT_NAME": "COSMOS 2251 DEB", "OBJECT_ID": "1993-036MX", "EPOCH": "2025-12-19T10:34:46.902432", "MEAN_MOTION": 14.84854054, "ECCENTRICITY": 0.0010679, "INCLINATION": 74.0045, "RA_OF_ASC_NODE": 153.3802, "ARG_OF_PERICENTER": 214.9329, "MEAN_ANOMALY": 168.54, "EPHEMERIS_TYPE": 0, "CLASSIFICATION_TYPE": "U", "NORAD_CAT_ID": 34301, "ELEMENT_SET_NO": 999, "REV_AT_EPOCH": 88500, "BSTAR": 0.0021571, "MEAN_MOTION_DOT": 0.0001837, "MEAN_MOTION_DDOT": 0}, "tle": {"line1": "1 34301U 93036MX  25353.44082063  .00018370  00000+0  21571-2 0  9993", "line2": "2 34301  74.0045 153.3802 0010679 214.9329 168.5400 14.84854054885006"}}, "geometry": {"type": "Point", "coordinates": [-67.70411278679151, 65.57816682830308]}}, {"type": "Feature", "properties": {"norad_id": 34302, "name": "COSMOS 2251 DEB", "group": "cosmos-2251-debris", "lat": 26.382622912630143, "lon": 117.64890555936518, "alt_km": 735.0081971958462, "timestamp": "2025-12-20T09:36:02.043069+00:00", "meta": {"OBJECT_NAME": "COSMOS 2251 DEB", "OBJECT_ID": "1993-036MY", "EPOCH": "2025-12-20T03:05:24.311040", "MEAN_MOTION": 14.39356205, "ECCENTRICITY": 0.0079196, "INCLINATION": 74.178, "RA_OF_ASC_NODE": 110.0592, "ARG_OF_PERICENTER": 323.2282, "MEAN_ANOMALY": 98.4958, "EPHEMERIS_TYPE": 0, "CLASSIFICATION_TYPE": "U", "NORAD_CAT_ID": 34302, "ELEMENT_SET_NO": 999, "REV_AT_EPOCH": 87827, "BSTAR": 0.00041477, "MEAN_MOTION_DOT": 1.311e-05, "MEAN_MOTION_DDOT": 0}, "tle": {"line1": "1 34302U 93036MY  25354.12875360  .00001311  00000+0  41477-3 0  9995", "line2": "2 34302  74.1780 110.0592 0079196 323.2282  98.4958 14.39356205878276"}}, "geometry": {"type": "Point", "coordinates": [117.64890555936518, 26.382622912630143]}}]}